AEROCUBE 6A             
1 40045U 14033AM  26068.93083119  .00007845  00000+0  67890-3 0  9996
2 40045  97.7128 237.0691 0038730 349.0559  10.9816 14.96848607631764
STARLINK-5070           
1 55654U 23021AC  26068.73146570 -.00001783  00000+0 -14165-3 0  9998
2 55654  70.0003 184.5139 0003378 265.7825  94.2948 14.98340861168795
